CCSDS_OMM_VERS = 2.0
CREATION_DATE  = 
ORIGINATOR     = 

OBJECT_NAME    = IDEFIX & ARIANE 42P R/B
OBJECT_ID      = 2002-021B
CENTER_NAME    = EARTH
REF_FRAME      = TEME
TIME_SYSTEM    = UTC
MEAN_ELEMENT_THEORY = SGP/SGP4

EPOCH          = 2026-01-14T19:07:05.069280
MEAN_MOTION    = 14.30978698
ECCENTRICITY   = .0011761
INCLINATION    = 98.5818
RA_OF_ASC_NODE = 314.0649
ARG_OF_PERICENTER = 351.8997
MEAN_ANOMALY   = 8.1995

EPHEMERIS_TYPE = 0
CLASSIFICATION_TYPE = U
NORAD_CAT_ID   = 27422
ELEMENT_SET_NO = 999
REV_AT_EPOCH   = 23631
BSTAR          = .83555E-4
MEAN_MOTION_DOT = .176E-5
MEAN_MOTION_DDOT = 0

CCSDS_OMM_VERS = 2.0
CREATION_DATE  = 
ORIGINATOR     = 

OBJECT_NAME    = AQUA
OBJECT_ID      = 2002-022A
CENTER_NAME    = EARTH
REF_FRAME      = TEME
TIME_SYSTEM    = UTC
MEAN_ELEMENT_THEORY = SGP/SGP4

EPOCH          = 2026-01-15T03:50:49.253856
MEAN_MOTION    = 14.61820973
ECCENTRICITY   = .0002042
INCLINATION    = 98.4081
RA_OF_ASC_NODE = 341.5903
ARG_OF_PERICENTER = 78.2090
MEAN_ANOMALY   = 338.7813

EPHEMERIS_TYPE = 0
CLASSIFICATION_TYPE = U
NORAD_CAT_ID   = 27424
ELEMENT_SET_NO = 999
REV_AT_EPOCH   = 26091
BSTAR          = .13375E-3
MEAN_MOTION_DOT = .619E-5
MEAN_MOTION_DDOT = 0

CCSDS_OMM_VERS = 2.0
CREATION_DATE  = 
ORIGINATOR     = 

OBJECT_NAME    = CZ-4B R/B
OBJECT_ID      = 2002-024C
CENTER_NAME    = EARTH
REF_FRAME      = TEME
TIME_SYSTEM    = UTC
MEAN_ELEMENT_THEORY = SGP/SGP4

EPOCH          = 2026-01-15T03:56:38.221728
MEAN_MOTION    = 14.14535718
ECCENTRICITY   = .0050325
INCLINATION    = 98.8949
RA_OF_ASC_NODE = 68.8114
ARG_OF_PERICENTER = 173.9677
MEAN_ANOMALY   = 200.0591

EPHEMERIS_TYPE = 0
CLASSIFICATION_TYPE = U
NORAD_CAT_ID   = 27432
ELEMENT_SET_NO = 999
REV_AT_EPOCH   = 22167
BSTAR          = .33929E-4
MEAN_MOTION_DOT = .21E-6
MEAN_MOTION_DDOT = 0

CCSDS_OMM_VERS = 2.0
CREATION_DATE  = 
ORIGINATOR     = 

OBJECT_NAME    = MIDORI II (ADEOS-II)
OBJECT_ID      = 2002-056A
CENTER_NAME    = EARTH
REF_FRAME      = TEME
TIME_SYSTEM    = UTC
MEAN_ELEMENT_THEORY = SGP/SGP4

EPOCH          = 2026-01-15T02:37:15.557376
MEAN_MOTION    = 14.29235063
ECCENTRICITY   = .0001723
INCLINATION    = 98.7682
RA_OF_ASC_NODE = 333.2491
ARG_OF_PERICENTER = 117.6261
MEAN_ANOMALY   = 242.5096

EPHEMERIS_TYPE = 0
CLASSIFICATION_TYPE = U
NORAD_CAT_ID   = 27597
ELEMENT_SET_NO = 999
REV_AT_EPOCH   = 20264
BSTAR          = .94378E-4
MEAN_MOTION_DOT = .195E-5
MEAN_MOTION_DDOT = 0

CCSDS_OMM_VERS = 2.0
CREATION_DATE  = 
ORIGINATOR     = 

OBJECT_NAME    = H-2A R/B
OBJECT_ID      = 2002-056E
CENTER_NAME    = EARTH
REF_FRAME      = TEME
TIME_SYSTEM    = UTC
MEAN_ELEMENT_THEORY = SGP/SGP4

EPOCH          = 2026-01-14T21:24:46.975104
MEAN_MOTION    = 14.33711105
ECCENTRICITY   = .0069617
INCLINATION    = 98.3109
RA_OF_ASC_NODE = 337.3381
ARG_OF_PERICENTER = 322.8064
MEAN_ANOMALY   = 54.0117

EPHEMERIS_TYPE = 0
CLASSIFICATION_TYPE = U
NORAD_CAT_ID   = 27601
ELEMENT_SET_NO = 999
REV_AT_EPOCH   = 20640
BSTAR          = .91473E-4
MEAN_MOTION_DOT = .219E-5
MEAN_MOTION_DDOT = 0

CCSDS_OMM_VERS = 2.0
CREATION_DATE  = 
ORIGINATOR     = 

OBJECT_NAME    = CZ-4B R/B
OBJECT_ID      = 2003-049C
CENTER_NAME    = EARTH
REF_FRAME      = TEME
TIME_SYSTEM    = UTC
MEAN_ELEMENT_THEORY = SGP/SGP4

EPOCH          = 2026-01-14T22:48:01.918080
MEAN_MOTION    = 14.54947986
ECCENTRICITY   = .0048961
INCLINATION    = 98.6815
RA_OF_ASC_NODE = 7.7739
ARG_OF_PERICENTER = 36.8207
MEAN_ANOMALY   = 323.6335

EPHEMERIS_TYPE = 0
CLASSIFICATION_TYPE = U
NORAD_CAT_ID   = 28059
ELEMENT_SET_NO = 999
REV_AT_EPOCH   = 17878
BSTAR          = .79308E-4
MEAN_MOTION_DOT = .295E-5
MEAN_MOTION_DDOT = 0

CCSDS_OMM_VERS = 2.0
CREATION_DATE  = 
ORIGINATOR     = 

OBJECT_NAME    = CZ-2C R/B
OBJECT_ID      = 2004-012C
CENTER_NAME    = EARTH
REF_FRAME      = TEME
TIME_SYSTEM    = UTC
MEAN_ELEMENT_THEORY = SGP/SGP4

EPOCH          = 2026-01-15T02:18:28.020096
MEAN_MOTION    = 15.58420834
ECCENTRICITY   = .001704
INCLINATION    = 97.7368
RA_OF_ASC_NODE = 75.5362
ARG_OF_PERICENTER = 145.4876
MEAN_ANOMALY   = 214.7489

EPHEMERIS_TYPE = 0
CLASSIFICATION_TYPE = U
NORAD_CAT_ID   = 28222
ELEMENT_SET_NO = 999
REV_AT_EPOCH   = 19591
BSTAR          = .33988E-3
MEAN_MOTION_DOT = .25964E-3
MEAN_MOTION_DDOT = 0

CCSDS_OMM_VERS = 2.0
CREATION_DATE  = 
ORIGINATOR     = 

OBJECT_NAME    = SL-16 R/B
OBJECT_ID      = 2004-021B
CENTER_NAME    = EARTH
REF_FRAME      = TEME
TIME_SYSTEM    = UTC
MEAN_ELEMENT_THEORY = SGP/SGP4

EPOCH          = 2026-01-15T03:21:01.608480
MEAN_MOTION    = 14.14592679
ECCENTRICITY   = .0003057
INCLINATION    = 71.0030
RA_OF_ASC_NODE = 344.8715
ARG_OF_PERICENTER = 143.8328
MEAN_ANOMALY   = 216.3002

EPHEMERIS_TYPE = 0
CLASSIFICATION_TYPE = U
NORAD_CAT_ID   = 28353
ELEMENT_SET_NO = 999
REV_AT_EPOCH   = 11526
BSTAR          = .32388E-5
MEAN_MOTION_DOT = -.41E-6
MEAN_MOTION_DDOT = 0

CCSDS_OMM_VERS = 2.0
CREATION_DATE  = 
ORIGINATOR     = 

OBJECT_NAME    = CZ-4B R/B
OBJECT_ID      = 2004-035C
CENTER_NAME    = EARTH
REF_FRAME      = TEME
TIME_SYSTEM    = UTC
MEAN_ELEMENT_THEORY = SGP/SGP4

EPOCH          = 2026-01-15T02:21:03.705120
MEAN_MOTION    = 15.27994885
ECCENTRICITY   = .0033495
INCLINATION    = 97.3577
RA_OF_ASC_NODE = 50.0047
ARG_OF_PERICENTER = 156.0866
MEAN_ANOMALY   = 204.1938

EPHEMERIS_TYPE = 0
CLASSIFICATION_TYPE = U
NORAD_CAT_ID   = 28415
ELEMENT_SET_NO = 999
REV_AT_EPOCH   = 17172
BSTAR          = .16749E-3
MEAN_MOTION_DOT = .4573E-4
MEAN_MOTION_DDOT = 0

CCSDS_OMM_VERS = 2.0
CREATION_DATE  = 
ORIGINATOR     = 

OBJECT_NAME    = CZ-2C R/B
OBJECT_ID      = 2004-046B
CENTER_NAME    = EARTH
REF_FRAME      = TEME
TIME_SYSTEM    = UTC
MEAN_ELEMENT_THEORY = SGP/SGP4

EPOCH          = 2026-01-14T18:35:20.272416
MEAN_MOTION    = 14.26965597
ECCENTRICITY   = .0138676
INCLINATION    = 98.2001
RA_OF_ASC_NODE = 293.1031
ARG_OF_PERICENTER = 314.7304
MEAN_ANOMALY   = 44.2655

EPHEMERIS_TYPE = 0
CLASSIFICATION_TYPE = U
NORAD_CAT_ID   = 28480
ELEMENT_SET_NO = 999
REV_AT_EPOCH   = 10081
BSTAR          = .61255E-4
MEAN_MOTION_DOT = .122E-5
MEAN_MOTION_DDOT = 0

CCSDS_OMM_VERS = 2.0
CREATION_DATE  = 
ORIGINATOR     = 

OBJECT_NAME    = ARIANE 5 R/B
OBJECT_ID      = 2004-049H
CENTER_NAME    = EARTH
REF_FRAME      = TEME
TIME_SYSTEM    = UTC
MEAN_ELEMENT_THEORY = SGP/SGP4

EPOCH          = 2026-01-14T22:30:01.137888
MEAN_MOTION    = 14.85119288
ECCENTRICITY   = .0084689
INCLINATION    = 98.2544
RA_OF_ASC_NODE = 181.4155
ARG_OF_PERICENTER = 164.5358
MEAN_ANOMALY   = 195.8473

EPHEMERIS_TYPE = 0
CLASSIFICATION_TYPE = U
NORAD_CAT_ID   = 28499
ELEMENT_SET_NO = 999
REV_AT_EPOCH   = 13781
BSTAR          = .92721E-4
MEAN_MOTION_DOT = .781E-5
MEAN_MOTION_DDOT = 0

CCSDS_OMM_VERS = 2.0
CREATION_DATE  = 
ORIGINATOR     = 

OBJECT_NAME    = CZ-2D R/B
OBJECT_ID      = 2005-024B
CENTER_NAME    = EARTH
REF_FRAME      = TEME
TIME_SYSTEM    = UTC
MEAN_ELEMENT_THEORY = SGP/SGP4

EPOCH          = 2026-01-15T00:09:29.231712
MEAN_MOTION    = 15.55458847
ECCENTRICITY   = .0004202
INCLINATION    = 97.3621
RA_OF_ASC_NODE = 28.3789
ARG_OF_PERICENTER = 191.3163
MEAN_ANOMALY   = 168.7997

EPHEMERIS_TYPE = 0
CLASSIFICATION_TYPE = U
NORAD_CAT_ID   = 28738
ELEMENT_SET_NO = 999
REV_AT_EPOCH   = 13142
BSTAR          = .3004E-3
MEAN_MOTION_DOT = .20407E-3
MEAN_MOTION_DDOT = 0

